STARLINK-36924          
1 68054U 26041Q   26070.08336806 -.01507892  00000+0 -58544-2 0  9996
2 68054  53.1586  55.1051 0000818 101.4748 102.3917 15.89398236  2607
STARLINK-35998          
1 68055U 26041R   26070.08336806 -.01506813  00000+0 -58896-2 0  9999
2 68055  53.1589  55.1108 0000844  95.7829 104.9886 15.89264735  2562
STARLINK-36845          
1 68056U 26041S   26070.08336806 -.01502740  00000+0 -57915-2 0  9996
2 68056  53.1584  55.0986 0000899  93.9791 112.9249 15.89530305  2605
STARLINK-36954          
1 68057U 26041T   26070.08336806 -.01508948  00000+0 -57793-2 0  9997
2 68057  53.1587  55.0921 0000843  98.9658 111.0116 15.89665432  2607
STARLINK-36899          
1 68058U 26041U   26070.08336806 -.01504163  00000+0 -57158-2 0  9998
2 68058  53.1588  55.0865 0000844  94.8724 117.9058 15.89808347  2600
STARLINK-36917          
1 68059U 26041V   26070.08336806 -.01523772  00000+0 -57644-2 0  9996
2 68059  53.1586  55.0798 0000950 101.5738 114.5140 15.89935437  2609
STARLINK-36959          
1 68060U 26041W   26070.08336806 -.01519853  00000+0 -57068-2 0  9993
2 68060  53.1587  55.0732 0000770  93.6543 125.2748 15.90074436  2603
STARLINK-36915          
1 68061U 26041X   26070.08336806 -.01525926  00000+0 -56942-2 0  9992
2 68061  53.1586  55.0670 0000868  99.2334 122.7450 15.90205923  2601
STARLINK-36952          
1 68062U 26041Y   26070.08336806 -.01529561  00000+0 -56748-2 0  9996
2 68062  53.1588  55.0609 0000792  95.2515 129.9172 15.90326385  2605
STARLINK-37000          
1 68063U 26041Z   26070.08336806 -.01548066  00000+0 -57171-2 0  9999
2 68063  53.1588  55.0536 0000792  96.5322 131.8584 15.90454542  2601
STARLINK-36996          
1 68064U 26041AA  26070.08336806 -.01591264  00000+0 -57197-2 0  9996
2 68064  53.1587  55.0472 0000893  96.6105 135.0358 15.90574727  2605
STARLINK-36836          
1 68065U 26041AB  26070.08336806 -.01812931  89616-3 -57014-2 0  9996
2 68065  53.1587  55.0342 0000833  98.0008 139.7242 15.90831933  2602
