CCSDS_OMM_VERS = 2.0
CREATION_DATE  = 
ORIGINATOR     = 

OBJECT_NAME    = STARLINK-36924
OBJECT_ID      = 2026-041Q
CENTER_NAME    = EARTH
REF_FRAME      = TEME
TIME_SYSTEM    = UTC
MEAN_ELEMENT_THEORY = SGP/SGP4

EPOCH          = 2026-03-11T02:00:03.000384
MEAN_MOTION    = 15.89398236
ECCENTRICITY   = .0000818
INCLINATION    = 53.1586
RA_OF_ASC_NODE = 55.1051
ARG_OF_PERICENTER = 101.4748
MEAN_ANOMALY   = 102.3917

EPHEMERIS_TYPE = 0
CLASSIFICATION_TYPE = U
NORAD_CAT_ID   = 68054
ELEMENT_SET_NO = 999
REV_AT_EPOCH   = 260
BSTAR          = -.58544E-2
MEAN_MOTION_DOT = -.1507892E-1
MEAN_MOTION_DDOT = 0

CCSDS_OMM_VERS = 2.0
CREATION_DATE  = 
ORIGINATOR     = 

OBJECT_NAME    = STARLINK-35998
OBJECT_ID      = 2026-041R
CENTER_NAME    = EARTH
REF_FRAME      = TEME
TIME_SYSTEM    = UTC
MEAN_ELEMENT_THEORY = SGP/SGP4

EPOCH          = 2026-03-11T02:00:03.000384
MEAN_MOTION    = 15.89264735
ECCENTRICITY   = .0000844
INCLINATION    = 53.1589
RA_OF_ASC_NODE = 55.1108
ARG_OF_PERICENTER = 95.7829
MEAN_ANOMALY   = 104.9886

EPHEMERIS_TYPE = 0
CLASSIFICATION_TYPE = U
NORAD_CAT_ID   = 68055
ELEMENT_SET_NO = 999
REV_AT_EPOCH   = 256
BSTAR          = -.58896E-2
MEAN_MOTION_DOT = -.1506813E-1
MEAN_MOTION_DDOT = 0

CCSDS_OMM_VERS = 2.0
CREATION_DATE  = 
ORIGINATOR     = 

OBJECT_NAME    = STARLINK-36845
OBJECT_ID      = 2026-041S
CENTER_NAME    = EARTH
REF_FRAME      = TEME
TIME_SYSTEM    = UTC
MEAN_ELEMENT_THEORY = SGP/SGP4

EPOCH          = 2026-03-11T02:00:03.000384
MEAN_MOTION    = 15.89530305
ECCENTRICITY   = .0000899
INCLINATION    = 53.1584
RA_OF_ASC_NODE = 55.0986
ARG_OF_PERICENTER = 93.9791
MEAN_ANOMALY   = 112.9249

EPHEMERIS_TYPE = 0
CLASSIFICATION_TYPE = U
NORAD_CAT_ID   = 68056
ELEMENT_SET_NO = 999
REV_AT_EPOCH   = 260
BSTAR          = -.57915E-2
MEAN_MOTION_DOT = -.150274E-1
MEAN_MOTION_DDOT = 0

CCSDS_OMM_VERS = 2.0
CREATION_DATE  = 
ORIGINATOR     = 

OBJECT_NAME    = STARLINK-36954
OBJECT_ID      = 2026-041T
CENTER_NAME    = EARTH
REF_FRAME      = TEME
TIME_SYSTEM    = UTC
MEAN_ELEMENT_THEORY = SGP/SGP4

EPOCH          = 2026-03-11T02:00:03.000384
MEAN_MOTION    = 15.89665432
ECCENTRICITY   = .0000843
INCLINATION    = 53.1587
RA_OF_ASC_NODE = 55.0921
ARG_OF_PERICENTER = 98.9658
MEAN_ANOMALY   = 111.0116

EPHEMERIS_TYPE = 0
CLASSIFICATION_TYPE = U
NORAD_CAT_ID   = 68057
ELEMENT_SET_NO = 999
REV_AT_EPOCH   = 260
BSTAR          = -.57793E-2
MEAN_MOTION_DOT = -.1508948E-1
MEAN_MOTION_DDOT = 0

CCSDS_OMM_VERS = 2.0
CREATION_DATE  = 
ORIGINATOR     = 

OBJECT_NAME    = STARLINK-36899
OBJECT_ID      = 2026-041U
CENTER_NAME    = EARTH
REF_FRAME      = TEME
TIME_SYSTEM    = UTC
MEAN_ELEMENT_THEORY = SGP/SGP4

EPOCH          = 2026-03-11T02:00:03.000384
MEAN_MOTION    = 15.89808347
ECCENTRICITY   = .0000844
INCLINATION    = 53.1588
RA_OF_ASC_NODE = 55.0865
ARG_OF_PERICENTER = 94.8724
MEAN_ANOMALY   = 117.9058

EPHEMERIS_TYPE = 0
CLASSIFICATION_TYPE = U
NORAD_CAT_ID   = 68058
ELEMENT_SET_NO = 999
REV_AT_EPOCH   = 260
BSTAR          = -.57158E-2
MEAN_MOTION_DOT = -.1504163E-1
MEAN_MOTION_DDOT = 0

CCSDS_OMM_VERS = 2.0
CREATION_DATE  = 
ORIGINATOR     = 

OBJECT_NAME    = STARLINK-36917
OBJECT_ID      = 2026-041V
CENTER_NAME    = EARTH
REF_FRAME      = TEME
TIME_SYSTEM    = UTC
MEAN_ELEMENT_THEORY = SGP/SGP4

EPOCH          = 2026-03-11T02:00:03.000384
MEAN_MOTION    = 15.89935437
ECCENTRICITY   = .000095
INCLINATION    = 53.1586
RA_OF_ASC_NODE = 55.0798
ARG_OF_PERICENTER = 101.5738
MEAN_ANOMALY   = 114.5140

EPHEMERIS_TYPE = 0
CLASSIFICATION_TYPE = U
NORAD_CAT_ID   = 68059
ELEMENT_SET_NO = 999
REV_AT_EPOCH   = 260
BSTAR          = -.57644E-2
MEAN_MOTION_DOT = -.1523772E-1
MEAN_MOTION_DDOT = 0

CCSDS_OMM_VERS = 2.0
CREATION_DATE  = 
ORIGINATOR     = 

OBJECT_NAME    = STARLINK-36959
OBJECT_ID      = 2026-041W
CENTER_NAME    = EARTH
REF_FRAME      = TEME
TIME_SYSTEM    = UTC
MEAN_ELEMENT_THEORY = SGP/SGP4

EPOCH          = 2026-03-11T02:00:03.000384
MEAN_MOTION    = 15.90074436
ECCENTRICITY   = .000077
INCLINATION    = 53.1587
RA_OF_ASC_NODE = 55.0732
ARG_OF_PERICENTER = 93.6543
MEAN_ANOMALY   = 125.2748

EPHEMERIS_TYPE = 0
CLASSIFICATION_TYPE = U
NORAD_CAT_ID   = 68060
ELEMENT_SET_NO = 999
REV_AT_EPOCH   = 260
BSTAR          = -.57068E-2
MEAN_MOTION_DOT = -.1519853E-1
MEAN_MOTION_DDOT = 0

CCSDS_OMM_VERS = 2.0
CREATION_DATE  = 
ORIGINATOR     = 

OBJECT_NAME    = STARLINK-36915
OBJECT_ID      = 2026-041X
CENTER_NAME    = EARTH
REF_FRAME      = TEME
TIME_SYSTEM    = UTC
MEAN_ELEMENT_THEORY = SGP/SGP4

EPOCH          = 2026-03-11T02:00:03.000384
MEAN_MOTION    = 15.90205923
ECCENTRICITY   = .0000868
INCLINATION    = 53.1586
RA_OF_ASC_NODE = 55.0670
ARG_OF_PERICENTER = 99.2334
MEAN_ANOMALY   = 122.7450

EPHEMERIS_TYPE = 0
CLASSIFICATION_TYPE = U
NORAD_CAT_ID   = 68061
ELEMENT_SET_NO = 999
REV_AT_EPOCH   = 260
BSTAR          = -.56942E-2
MEAN_MOTION_DOT = -.1525926E-1
MEAN_MOTION_DDOT = 0

CCSDS_OMM_VERS = 2.0
CREATION_DATE  = 
ORIGINATOR     = 

OBJECT_NAME    = STARLINK-36952
OBJECT_ID      = 2026-041Y
CENTER_NAME    = EARTH
REF_FRAME      = TEME
TIME_SYSTEM    = UTC
MEAN_ELEMENT_THEORY = SGP/SGP4

EPOCH          = 2026-03-11T02:00:03.000384
MEAN_MOTION    = 15.90326385
ECCENTRICITY   = .0000792
INCLINATION    = 53.1588
RA_OF_ASC_NODE = 55.0609
ARG_OF_PERICENTER = 95.2515
MEAN_ANOMALY   = 129.9172

EPHEMERIS_TYPE = 0
CLASSIFICATION_TYPE = U
NORAD_CAT_ID   = 68062
ELEMENT_SET_NO = 999
REV_AT_EPOCH   = 260
BSTAR          = -.56748E-2
MEAN_MOTION_DOT = -.1529561E-1
MEAN_MOTION_DDOT = 0

CCSDS_OMM_VERS = 2.0
CREATION_DATE  = 
ORIGINATOR     = 

OBJECT_NAME    = STARLINK-37000
OBJECT_ID      = 2026-041Z
CENTER_NAME    = EARTH
REF_FRAME      = TEME
TIME_SYSTEM    = UTC
MEAN_ELEMENT_THEORY = SGP/SGP4

EPOCH          = 2026-03-11T02:00:03.000384
MEAN_MOTION    = 15.90454542
ECCENTRICITY   = .0000792
INCLINATION    = 53.1588
RA_OF_ASC_NODE = 55.0536
ARG_OF_PERICENTER = 96.5322
MEAN_ANOMALY   = 131.8584

EPHEMERIS_TYPE = 0
CLASSIFICATION_TYPE = U
NORAD_CAT_ID   = 68063
ELEMENT_SET_NO = 999
REV_AT_EPOCH   = 260
BSTAR          = -.57171E-2
MEAN_MOTION_DOT = -.1548066E-1
MEAN_MOTION_DDOT = 0

CCSDS_OMM_VERS = 2.0
CREATION_DATE  = 
ORIGINATOR     = 

OBJECT_NAME    = STARLINK-36996
OBJECT_ID      = 2026-041AA
CENTER_NAME    = EARTH
REF_FRAME      = TEME
TIME_SYSTEM    = UTC
MEAN_ELEMENT_THEORY = SGP/SGP4

EPOCH          = 2026-03-11T02:00:03.000384
MEAN_MOTION    = 15.90574727
ECCENTRICITY   = .0000893
INCLINATION    = 53.1587
RA_OF_ASC_NODE = 55.0472
ARG_OF_PERICENTER = 96.6105
MEAN_ANOMALY   = 135.0358

EPHEMERIS_TYPE = 0
CLASSIFICATION_TYPE = U
NORAD_CAT_ID   = 68064
ELEMENT_SET_NO = 999
REV_AT_EPOCH   = 260
BSTAR          = -.57197E-2
MEAN_MOTION_DOT = -.1591264E-1
MEAN_MOTION_DDOT = 0

CCSDS_OMM_VERS = 2.0
CREATION_DATE  = 
ORIGINATOR     = 

OBJECT_NAME    = STARLINK-36836
OBJECT_ID      = 2026-041AB
CENTER_NAME    = EARTH
REF_FRAME      = TEME
TIME_SYSTEM    = UTC
MEAN_ELEMENT_THEORY = SGP/SGP4

EPOCH          = 2026-03-11T02:00:03.000384
MEAN_MOTION    = 15.90831933
ECCENTRICITY   = .0000833
INCLINATION    = 53.1587
RA_OF_ASC_NODE = 55.0342
ARG_OF_PERICENTER = 98.0008
MEAN_ANOMALY   = 139.7242

EPHEMERIS_TYPE = 0
CLASSIFICATION_TYPE = U
NORAD_CAT_ID   = 68065
ELEMENT_SET_NO = 999
REV_AT_EPOCH   = 260
BSTAR          = -.57014E-2
MEAN_MOTION_DOT = -.1812931E-1
MEAN_MOTION_DDOT = .89616E-3

